GLOBALSTAR M068         
1 32266U 07048D   26005.13264524 -.00000016  00000+0  48802-3 0  9990
2 32266  51.9900  46.6515 0001097 200.0844 194.9059 12.62837742843078
GLOBALSTAR M079         
1 37188U 10054A   26005.11730591 -.00000070  00000+0  18715-3 0  9999
2 37188  52.0024 245.0810 0001051  56.3039 101.1282 12.62269712701950
GLOBALSTAR M074         
1 37189U 10054B   26004.95359869 -.00000063  00000+0  23030-3 0  9994
2 37189  52.0003 244.8709 0001084  74.8691 297.8122 12.62265054702544
GLOBALSTAR M076         
1 37190U 10054C   26004.98032047 -.00000068  00000+0  20018-3 0  9993
2 37190  52.0021 244.9798 0001194  68.5796 304.7614 12.62268903702262
GLOBALSTAR M077         
1 37191U 10054D   26005.01649609 -.00000036  00000+0  77472-3 0  9998
2 37191  51.9950 233.7482 0001631  63.4791  84.5930 11.68177239702072
GLOBALSTAR M075         
1 37192U 10054E   25358.21427079 -.00000088  00000+0  85706-4 0  9993
2 37192  52.0022 322.9423 0000480 109.7567 352.3949 12.62261317699849
GLOBALSTAR M073         
1 37193U 10054F   26005.02722170 -.00000096  00000+0  43904-4 0  9996
2 37193  52.0032 200.9547 0001210  75.7511  90.2267 12.62268832703325
GLOBALSTAR M083         
1 37739U 11033A   26004.79963361 -.00000116  00000+0 -66622-4 0  9998
2 37739  51.9842 150.0977 0000932  89.0292  64.1463 12.62266292672314
GLOBALSTAR M088         
1 37740U 11033B   26005.14235037 -.00000085  00000+0  10484-3 0  9990
2 37740  52.0235  55.0871 0000457 135.1624 255.6138 12.62271306667902
GLOBALSTAR M091         
1 37741U 11033C   26004.47252348 -.00000098  00000+0  32946-4 0  9992
2 37741  52.0021  20.3340 0000106  90.4707  74.1354 12.62268366668602
GLOBALSTAR M085         
1 37742U 11033D   26005.13875336 -.00000091  00000+0  72809-4 0  9990
2 37742  52.0150 329.4553 0000423  21.3998 352.7401 12.62267670669204
GLOBALSTAR M081         
1 37743U 11033E   25351.59018587 -.00000087  00000+0  92331-4 0  9998
2 37743  51.9980  28.5496 0000222  94.7932  71.3857 12.62270971667009
GLOBALSTAR M089         
1 37744U 11033F   26005.15319523 -.00000063  00000+0  22921-3 0  9993
2 37744  51.9942 286.2234 0000917  75.6063  65.0553 12.62263268670193
GLOBALSTAR M084         
1 38040U 11080A   26005.17325350 -.00000123  00000+0 -10794-3 0  9995
2 38040  51.9997 153.5554 0001263 104.7369  66.3656 12.62267044648179
GLOBALSTAR M080         
1 38041U 11080B   26005.14473350 -.00000120  00000+0 -89242-4 0  9999
2 38041  52.0045 155.3039 0000557 113.2361  58.0191 12.62265442648291
GLOBALSTAR M082         
1 38042U 11080C   26005.20314637 -.00000108  00000+0 -24231-4 0  9992
2 38042  52.0073 110.6095 0000506 127.8124 238.7271 12.62266361649019
GLOBALSTAR M092         
1 38043U 11080D   26004.86167500 -.00000094  00000+0  53807-4 0  9993
2 38043  52.0060 202.0380 0001043  86.5516 287.3041 12.62269196647429
GLOBALSTAR M090         
1 38044U 11080E   26004.59781953 -.00000103  00000+0  45449-5 0  9993
2 38044  52.0123 106.3556 0000664 106.8636 266.4691 12.62265605649059
GLOBALSTAR M086         
1 38045U 11080F   26005.05239876 -.00000088  00000+0  87778-4 0  9990
2 38045  51.9898 105.1677 0001514  71.0264 100.0755 12.62281844649050
GLOBALSTAR M097         
1 39072U 13005A   26004.56805026 -.00000088  00000+0  85827-4 0  9994
2 39072  52.0069  21.4061 0000334  68.9479 291.1423 12.62267893596246
GLOBALSTAR M093         
1 39073U 13005B   26005.01701081 -.00000103  00000+0  43194-5 0  9992
2 39073  52.0135  13.3257 0000432  25.8356 334.2532 12.62271338596253
GLOBALSTAR M094         
1 39074U 13005C   26005.17531913 -.00000067  00000+0  20582-3 0  9998
2 39074  51.9972 287.1250 0000827  42.0360 318.0570 12.62265696597881
GLOBALSTAR M096         
1 39075U 13005D   26005.18831297 -.00000094  00000+0  52394-4 0  9995
2 39075  52.0102 335.7549 0000476  24.9894 335.0996 12.62269710596804
GLOBALSTAR M078         
1 39076U 13005E   26005.16226465 -.00000061  00000+0  24128-3 0  9996
2 39076  51.9887  60.0708 0000527 244.5328 115.5484 12.62271540595421
GLOBALSTAR M095         
1 39077U 13005F   26005.18860128 -.00000085  00000+0  10505-3 0  9999
2 39077  52.0097  57.3633 0000028  47.5315 312.5554 12.62267554595287
GLOBALSTAR M087         
1 52888U 22064A   26004.96416862 -.00000099  00000+0  25357-4 0  9993
2 52888  51.9971 199.3781 0000988  72.6253 287.4721 12.62262337170523
